K10A83V             K145N 318.63936  116.16456   90.14058   16.03753  0.2144303  0.21539642   2.7561979  6 MPO278009    20   1  182 days 0.31 M-v 38h MPCS       2000          2010 AV83          20100708
